NORAD_CAT_ID,OBJECT_NAME,OBJECT_TYPE,EPOCH,MEAN_MOTION,ECCENTRICITY,INCLINATION,RA_OF_ASC_NODE,ARG_OF_PERICENTER,MEAN_ANOMALY,BSTAR,MEAN_MOTION_DOT,MEAN_MOTION_DDOT,TLE_LINE0,TLE_LINE1,TLE_LINE2,SEMIMAJOR_AXIS,PERIOD,APOGEE,PERIGEE,DECAYED
52088.0,STARLINK-3537,PAYLOAD,2022-06-19 14:00:01,15.77326964,0.000149,53.2173,39.6034,144.8172,185.9609,-0.0031388,-0.00498522,0.0,0 STARLINK-3537,1 52088U 22029A   22170.58334491 -.00498522  00000-0 -31388-2 0  9994,2 52088  53.2173  39.6034 0001490 144.8172 185.9609 15.77326964  1304,6716.155,91.294,339.02,337.019,0.0
52088.0,STARLINK-3537,PAYLOAD,2022-06-19 22:00:00,15.76989067,0.0001117,53.2174,37.9465,140.6368,283.8029,-0.0024516,-0.00388562,0.0,0 STARLINK-3537,1 52088U 22029A   22170.91667824 -.00388562  00000-0 -24516-2 0  9997,2 52088  53.2174  37.9465 0001117 140.6368 283.8029 15.76989067  1303,6717.114000000001,91.313,339.7290000000001,338.2290000000001,0.0
52088.0,STARLINK-3537,PAYLOAD,2022-06-20 06:00:00,15.76720243,0.0001739,53.2173,36.2872,145.9093,11.8361,-2.3141e-05,-4.439e-05,0.0,0 STARLINK-3537,1 52088U 22029A   22171.25001157 -.00004439  00000-0 -23141-4 0  9999,2 52088  53.2173  36.2872 0001739 145.9093  11.8361 15.76720243 16009,6717.877,91.329,340.911,338.574,0.0
52088.0,STARLINK-3537,PAYLOAD,2022-06-20 10:00:00,15.76764223,0.0001605,53.2083,35.4502,142.2215,242.1436,-0.0001715,-0.00028673,0.0,0 STARLINK-3537,1 52088U 22029A   22171.41667824 -.00028673  00000-0 -17150-3 0  9994,2 52088  53.2083  35.4502 0001605 142.2215 242.1436 15.76764223 16039,6717.753000000002,91.326,340.696,338.539,0.0
52088.0,STARLINK-3537,PAYLOAD,2022-06-20 14:00:01,15.76755087,0.0001745,53.2081,34.6206,139.7423,111.2269,-0.00019421,-0.00032357,0.0,0 STARLINK-3537,1 52088U 22029A   22171.58334491 -.00032357  00000-0 -19421-3 0  9990,2 52088  53.2081  34.6206 0001745 139.7423 111.2269 15.76755087  1308,6717.779,91.327,340.816,338.471,0.0
52088.0,STARLINK-3537,PAYLOAD,2022-06-20 22:00:00,15.76700431,0.0001659,53.2079,32.9642,131.67,212.4977,0.00030196,0.00048987,0.0,0 STARLINK-3537,1 52088U 22029A   22171.91667824  .00048987  00000-0  30196-3 0  9992,2 52088  53.2079  32.9642 0001659 131.6700 212.4977 15.76700431  1306,6717.934,91.33,340.913,338.684,0.0
52088.0,STARLINK-3537,PAYLOAD,2022-06-21 06:00:00,15.76789607,0.0001505,53.2076,31.305,139.4655,297.8551,-0.00059044,-0.00096458,0.0,0 STARLINK-3537,1 52088U 22029A   22172.25001157 -.00096458  00000-0 -59044-3 0  9992,2 52088  53.2076  31.3050 0001505 139.4655 297.8551 15.76789607 16161,6717.68,91.325,340.556,338.534,0.0
52088.0,STARLINK-3537,PAYLOAD,2022-06-21 14:00:01,15.76715114,0.0001673,53.2081,29.6452,143.2515,27.235,-0.00018251,-0.000304,0.0,0 STARLINK-3537,1 52088U 22029A   22172.58334491 -.00030400  00000-0 -18251-3 0  9998,2 52088  53.2081  29.6452 0001673 143.2515  27.2350 15.76715114  1301,6717.892,91.329,340.881,338.6330000000001,0.0
52088.0,STARLINK-3537,PAYLOAD,2022-06-21 22:00:00,15.76692411,0.0001538,53.2082,27.9891,132.8009,130.8345,6.5691e-05,0.00010092,0.0,0 STARLINK-3537,1 52088U 22029A   22172.91667824  .00010092  00000-0  65691-4 0  9998,2 52088  53.2082  27.9891 0001538 132.8009 130.8345 15.76692411 16262,6717.956999999999,91.33,340.855,338.788,0.0
52088.0,STARLINK-3537,PAYLOAD,2022-06-22 14:00:01,15.76691993,0.0001626,53.2082,24.6704,142.9561,306.9554,-4.0101e-05,-7.201e-05,0.0,0 STARLINK-3537,1 52088U 22029A   22173.58334491 -.00007201  00000-0 -40101-4 0  9992,2 52088  53.2082  24.6704 0001626 142.9561 306.9554 15.76691993  1303,6717.958000000001,91.33,340.915,338.73,0.0
52088.0,STARLINK-3537,PAYLOAD,2022-06-22 22:00:00,15.76684027,0.0001278,53.2079,23.0142,140.59799999999998,42.4523,0.00045122,0.00073685,0.0,0 STARLINK-3537,1 52088U 22029A   22173.91667824  .00073685  00000-0  45122-3 0  9992,2 52088  53.2079  23.0142 0001278 140.5980  42.4523 15.76684027  1308,6717.98,91.331,340.704,338.987,0.0
52088.0,STARLINK-3537,PAYLOAD,2022-06-23 06:00:00,15.76773924,0.0001348,53.2077,21.3547,143.3504,132.8225,-0.00050632,-0.0008288,0.0,0 STARLINK-3537,1 52088U 22029A   22174.25001157 -.00082880  00000-0 -50632-3 0  9992,2 52088  53.2077  21.3547 0001348 143.3504 132.8225 15.76773924 16479,6717.725,91.326,340.496,338.684,0.0
52088.0,STARLINK-3537,PAYLOAD,2022-06-23 14:00:01,15.76731958,0.0001585999999999,53.2082,19.6952,139.4896,229.8641,-0.00017612,-0.00029383,0.0,0 STARLINK-3537,1 52088U 22029A   22174.58334491 -.00029383  00000-0 -17612-3 0  9998,2 52088  53.2082  19.6952 0001586 139.4896 229.8641 15.76731958  1305,6717.844,91.328,340.775,338.644,0.0
52088.0,STARLINK-3537,PAYLOAD,2022-06-23 22:00:00,15.76669788,0.0001488,53.2082,18.039,127.3611,335.1481,0.0003871,0.00063002,0.0,0 STARLINK-3537,1 52088U 22029A   22174.91667824  .00063002  00000-0  38710-3 0  9990,2 52088  53.2082  18.0390 0001488 127.3611 335.1481 15.76669788 16586,6718.021,91.332,340.885,338.886,0.0
52088.0,STARLINK-3537,PAYLOAD,2022-06-24 14:00:01,15.76705994,0.0001668,53.2079,14.7203,134.1263,154.6652,0.0001437,0.00022903,0.0,0 STARLINK-3537,1 52088U 22029A   22175.58334491  .00022903  00000-0  14370-3 0  9996,2 52088  53.2079  14.7203 0001668 134.1263 154.6652 15.76705994 16682,6717.918000000002,91.33,340.904,338.662,0.0
52088.0,STARLINK-3537,PAYLOAD,2022-06-24 22:00:01,15.76687812,0.000136,53.2078,13.064,131.5096,250.511,9.9215e-05,0.00015583,0.0,0 STARLINK-3537,1 52088U 22029A   22175.91668981  .00015583  00000-0  99215-4 0  9995,2 52088  53.2078  13.0640 0001360 131.5096 250.5110 15.76687812  1308,6717.97,91.331,340.7480000000001,338.921,0.0
52088.0,STARLINK-3537,PAYLOAD,2022-06-25 06:00:00,15.76705908,0.0001274,53.2077,11.4041,140.0941,334.974,0.0001206,0.00019107,0.0,0 STARLINK-3537,1 52088U 22029A   22176.25001157  .00019107  00000-0  12060-3 0  9997,2 52088  53.2077  11.4041 0001274 140.0941 334.9740 15.76705908 16794,6717.918000000002,91.33,340.639,338.927,0.0
52088.0,STARLINK-3537,PAYLOAD,2022-06-25 14:00:01,15.76746786,0.0001436,53.2081,9.745,139.4427,68.7625,2.2752e-05,3.073e-05,0.0,0 STARLINK-3537,1 52088U 22029A   22176.58334491  .00003073  00000-0  22752-4 0  9998,2 52088  53.2081   9.7450 0001436 139.4427  68.7625 15.76746786  1308,6717.802,91.327,340.63199999999995,338.702,0.0
52088.0,STARLINK-3537,PAYLOAD,2022-06-25 20:00:01,15.76772513,0.000125,53.2078,8.5028,126.6072,61.5214,-0.00034319,-0.00056556,0.0,0 STARLINK-3537,1 52088U 22029A   22176.83334491 -.00056556  00000-0 -34319-3 0  9993,2 52088  53.2078   8.5028 0001250 126.6072  61.5214 15.76772513 16881,6717.729,91.326,340.434,338.754,0.0
52088.0,STARLINK-3537,PAYLOAD,2022-06-25 22:00:00,15.76722817,0.0001274999999999,53.208,8.0885,124.1318,177.3123,0.0002436,0.00039386,0.0,0 STARLINK-3537,1 52088U 22029A   22176.91667824  .00039386  00000-0  24360-3 0  9996,2 52088  53.2080   8.0885 0001275 124.1318 177.3123 15.76722817  1301,6717.87,91.329,340.592,338.879,0.0
52088.0,STARLINK-3537,PAYLOAD,2022-06-26 06:00:00,15.76780416,0.0001323,53.2076,6.4283,130.8792,263.7423,-3.5965e-05,-6.55e-05,0.0,0 STARLINK-3537,1 52088U 22029A   22177.25001157 -.00006550  00000-0 -35965-4 0  9998,2 52088  53.2076   6.4283 0001323 130.8792 263.7423 15.76780416 16953,6717.706999999999,91.325,340.46,338.68300000000005,0.0
52088.0,STARLINK-3537,PAYLOAD,2022-06-26 14:00:01,15.76794988,0.0001435,53.2077,4.7694,132.3062,355.6153,-0.00039276,-0.00064635,0.0,0 STARLINK-3537,1 52088U 22029A   22177.58335648 -.00064635  00000-0 -39276-3 0  9995,2 52088  53.2077   4.7694 0001435 132.3062 355.6153 15.76794988  1305,6717.665,91.324,340.494,338.566,0.0
52088.0,STARLINK-3537,PAYLOAD,2022-06-26 20:00:01,15.76746355,0.0001289,53.2074,3.5273,123.622,344.1457,-0.00029358,-0.00048465,0.0,0 STARLINK-3537,1 52088U 22029A   22177.83334491 -.00048465  00000-0 -29358-3 0  9991,2 52088  53.2074   3.5273 0001289 123.6220 344.1457 15.76746355 17041,6717.803000000001,91.327,340.534,338.802,0.0
52088.0,STARLINK-3537,PAYLOAD,2022-06-26 22:00:00,15.76724744,0.0001247,53.2076,3.113,121.231,99.8363,-7.437600000000001e-05,-0.00012806,0.0,0 STARLINK-3537,1 52088U 22029A   22177.91667824 -.00012806  00000-0 -74376-4 0  9990,2 52088  53.2076   3.1130 0001247 121.2310  99.8363 15.76724744  1309,6717.865,91.329,340.56699999999995,338.892,0.0
52088.0,STARLINK-3537,PAYLOAD,2022-06-27 14:00:01,15.76648003,0.0001421,53.208,359.7940000000001,127.4658,279.8447,-0.00015941,-0.00026568,0.0,0 STARLINK-3537,1 52088U 22029A   22178.58334491 -.00026568  00000-0 -15941-3 0  9997,2 52088  53.2080 359.7940 0001421 127.4658 279.8447 15.76648003 17167,6718.083000000001,91.333,340.902,338.99300000000005,0.0
52088.0,STARLINK-3537,PAYLOAD,2022-06-27 22:00:00,15.76619587,0.0001123,53.2078,358.1375,118.8578,21.5425,0.00061266,0.00100312,0.0,0 STARLINK-3537,1 52088U 22029A   22178.91667824  .00100312  00000-0  61266-3 0  9992,2 52088  53.2078 358.1375 0001123 118.8578  21.5425 15.76619587 17212,6718.163000000001,91.335,340.783,339.274,0.0
52088.0,STARLINK-3537,PAYLOAD,2022-06-28 06:00:00,15.76668179,0.0001178,53.2076,356.4773,128.8213,104.6456,0.00025793,0.00041651,0.0,0 STARLINK-3537,1 52088U 22029A   22179.25001157  .00041651  00000-0  25793-3 0  9996,2 52088  53.2076 356.4773 0001178 128.8213 104.6456 15.76668179 17263,6718.025,91.332,340.682,339.099,0.0
52088.0,STARLINK-3537,PAYLOAD,2022-06-28 14:00:01,15.76732681,0.0001238,53.2078,354.8191,128.7279,197.8334,-0.00019627,-0.00032657,0.0,0 STARLINK-3537,1 52088U 22029A   22179.58334491 -.00032657  00000-0 -19627-3 0  9999,2 52088  53.2078 354.8191 0001238 128.7279 197.8334 15.76732681  1306,6717.842,91.328,340.539,338.875,0.0
52088.0,STARLINK-3537,PAYLOAD,2022-06-28 22:00:00,15.76660432,0.0001143,53.2077,353.1624,117.0046,302.7283,0.00035461,0.00057597,0.0,0 STARLINK-3537,1 52088U 22029A   22179.91667824  .00057597  00000-0  35461-3 0  9997,2 52088  53.2077 353.1624 0001143 117.0046 302.7283 15.76660432  1300,6718.047,91.332,340.68,339.145,0.0
